CCSDS_OMM_VERS,COMMENT,CREATION_DATE,ORIGINATOR,OBJECT_NAME,OBJECT_ID,CENTER_NAME,REF_FRAME,TIME_SYSTEM,MEAN_ELEMENT_THEORY,EPOCH,MEAN_MOTION,ECCENTRICITY,INCLINATION,RA_OF_ASC_NODE,ARG_OF_PERICENTER,MEAN_ANOMALY,EPHEMERIS_TYPE,CLASSIFICATION_TYPE,NORAD_CAT_ID,ELEMENT_SET_NO,REV_AT_EPOCH,BSTAR,MEAN_MOTION_DOT,MEAN_MOTION_DDOT,SEMIMAJOR_AXIS,PERIOD,APOAPSIS,PERIAPSIS,OBJECT_TYPE,RCS_SIZE,COUNTRY_CODE,LAUNCH_DATE,SITE,DECAY_DATE,FILE,GP_ID,TLE_LINE0,TLE_LINE1,TLE_LINE2
3.0,GENERATED VIA SPACE-TRACK.ORG API,2011-12-31T10:21:44,18 SPCS,FENGYUN 1C DEB,1999-025TX,EARTH,TEME,UTC,SGP4,2011-12-31T15:02:48.398784,15.88040889,0.001882,97.3633,235.6515,158.6631,216.7089,0,U,30166,999,26728,0.015747,0.03600502,0.014568,6685.917,90.677,320.365,295.199,DEBRIS,SMALL,PRC,1999-05-10,TSC,2012-01-01,1216093,86606329,0 FENGYUN 1C DEB,1 30166U 99025TX  11365.62694906  .03600502  14568-1  15747-1 0  9995,2 30166 097.3633 235.6515 0018820 158.6631 216.7089 15.88040889267284
3.0,GENERATED VIA SPACE-TRACK.ORG API,2023-10-12T17:36:35,18 SPCS,COSMOS 1408 DEB,1982-092ASC,EARTH,TEME,UTC,SGP4,2023-10-12T00:29:48.537024,16.29387583,0.0004137,82.5339,128.9202,225.9945,134.1008,0,U,50752,999,10376,0.0010916,0.04476708,-1.196e-06,6572.323,88.377,196.907,191.469,DEBRIS,SMALL,CIS,1982-09-16,PKMTR,2023-10-17,4031907,239003659,0 COSMOS 1408 DEB,1 50752U 82092ASC 23285.02070066  .04476708 -11960-5  10916-2 0  9999,2 50752  82.5339 128.9202 0004137 225.9945 134.1008 16.29387583103762
3.0,GENERATED VIA SPACE-TRACK.ORG API,2024-12-12T06:46:16,18 SPCS,OBJECT E,2023-081E,EARTH,TEME,UTC,SGP4,2024-12-10T06:31:21.644256,16.45866105,0.0009826,97.333,68.6572,280.0615,79.9579,0,U,56850,999,8488,0.00035865,0.1584789,2.5121e-06,6528.381,87.492,156.661,143.831,UNKNOWN,MEDIUM,TBD,2023-06-07,JSC,2024-12-14,4578906,275422303,0 OBJECT E,1 56850U 23081E   24345.27177829  .15847890  25121-5  35865-3 0  9997,2 56850  97.3330  68.6572 0009826 280.0615  79.9579 16.45866105 84888
3.0,GENERATED VIA SPACE-TRACK.ORG API,2005-04-25T10:07:34,18 SPCS,COSMOS 554 DEB,1973-021X,EARTH,TEME,UTC,SGP4,1973-06-05T11:50:12.570720,15.97605968,0.0063977,72.841,229.0907,248.3704,111.0651,0,U,6464,999,700,0.0,0.00697626,0.00023539,6659.204,90.134,323.672,238.465,DEBRIS,,,,,1973-06-05,129569,41998369,0 COSMOS 554 DEB,1 06464U 73021  X 73156.49320105  .00697626 +23539-3 +00000-0 0  9990,2 06464 072.8410 229.0907 0063977 248.3704 111.0651 15.97605968007001
3.0,GENERATED VIA SPACE-TRACK.ORG API,2004-05-28T19:03:29,18 SPCS,SL-12 R/B(AUX MOTOR),2001-045E,EARTH,TEME,UTC,SGP4,2002-05-30T18:03:22.458528,13.48441155,0.1310527,46.9178,192.6932,81.2676,294.9258,0,U,26940,999,723,0.0045378,0.99999999,3.627e-05,7456.141,106.789,2055.153,100.858,ROCKET BODY,MEDIUM,CIS,2001-10-06,TTMTR,2002-05-30,6714,2875622,0 SL-12 R/B(AUX MOTOR),1 26940U 01045E   02150.75234327 +.99999999 +36270-4 +45378-2 0  9995,2 26940 046.9178 192.6932 1310527 081.2676 294.9258 13.48441155007236
3.0,GENERATED VIA SPACE-TRACK.ORG API,2004-08-16T23:15:23,18 SPCS,SL-4 R/B,1981-026B,EARTH,TEME,UTC,SGP4,1981-03-25T14:56:10.021343,16.403016,0.003307,70.3434,323.8583,52.0387,310.2276,0,U,12342,999,133,0.00013498,0.08554501,1.635e-05,6543.141,87.788,186.644,143.368,ROCKET BODY,,,,,1981-03-25,34334,12253764,0 SL-4 R/B,1 12342U 81026  B 81084.62233821  .08554501 +16350-4 +13498-3 0  9992,2 12342 070.3434 323.8583 0033070 052.0387 310.2276 16.40301600001334
3.0,GENERATED VIA SPACE-TRACK.ORG API,2024-10-20T18:33:13,18 SPCS,MP42,2022-033N,EARTH,TEME,UTC,SGP4,2024-10-20T09:01:31.105344,16.47246543,0.0013066,97.2984,28.2979,270.7453,89.2354,0,U,52169,999,14331,0.0002558,0.15399449,2.5241e-06,6524.733,87.419,155.124,138.073,PAYLOAD,MEDIUM,LTU,2022-04-01,AFETR,2024-10-20,4529550,271113748,0 MP42,1 52169U 22033N   24294.37605446  .15399449  25241-5  25580-3 0  9995,2 52169  97.2984  28.2979 0013066 270.7453  89.2354 16.47246543143310
3.0,GENERATED VIA SPACE-TRACK.ORG API,2004-08-16T23:25:47,18 SPCS,COSMOS 1841 DEB,1987-037D,EARTH,TEME,UTC,SGP4,1987-07-04T19:15:27.729791,16.56349257,0.0005227,62.8188,135.8012,136.1725,224.17,0,U,17965,999,1142,6.2272e-05,0.13969173,4.019e-05,6500.81,86.938,126.073,119.277,DEBRIS,LARGE,CIS,1987-04-24,PKMTR,1987-07-04,34542,15633746,0 COSMOS 1841 DEB,1 17965U 87037  D 87185.80240428  .13969173 +40190-4 +62272-4 0  9990,2 17965 062.8188 135.8012 0005227 136.1725 224.1700 16.56349257011426
3.0,GENERATED VIA SPACE-TRACK.ORG API,2004-08-17T14:50:42,18 SPCS,COSMOS 1461 DEB,1983-044EE,EARTH,TEME,UTC,SGP4,1993-03-15T05:41:34.852416,14.68097876,0.0040727,67.064,24.2237,272.79,86.804,0,U,18248,999,41529,0.002302,0.00013341,0.0,7045.288,98.086,695.846,638.46,DEBRIS,SMALL,CIS,1983-05-07,TTMTR,1989-11-21,34863,19129998,0 COSMOS 1461 DEB,1 18248U 83044 EE 93074.23720894  .00013341 +00000-0 +23020-2 0  9991,2 18248 067.0640 024.2237 0040727 272.7900 086.8040 14.68097876415298
3.0,GENERATED VIA SPACE-TRACK.ORG API,2004-08-16T23:24:14,18 SPCS,COSMOS 1662 DEB,1985-050M,EARTH,TEME,UTC,SGP4,1986-11-30T03:30:10.979423,16.10991671,0.000568,65.821,169.6385,278.5588,82.4616,0,U,16257,999,8122,0.0068204,0.06930735,4.3322e-06,6622.265,89.385,247.891,240.369,DEBRIS,MEDIUM,CIS,1985-06-19,TTMTR,1986-12-01,34511,14984408,0 COSMOS 1662 DEB,1 16257U 85050M   86334.14596041  .06930735 +43322-5 +68204-2 0  9997,2 16257 065.8210 169.6385 0005680 278.5588 082.4616 16.10991671081226
3.0,GENERATED VIA SPACE-TRACK.ORG API,2004-08-15T23:36:23,18 SPCS,SL-3 R/B,1968-009B,EARTH,TEME,UTC,SGP4,1968-02-13T03:27:10.546848,16.33586327,0.0025388,64.9436,266.2706,42.7988,317.5052,0,U,3119,999,110,0.0,0.04934684,0.0,6561.06,88.149,199.582,166.268,ROCKET BODY,,,,,1968-02-13,33926,8785354,0 SL-3 R/B,1 03119U 68009  B 68044.14387207  .04934684 +00000-0 +00000-0 0  9999,2 03119 064.9436 266.2706 0025388 042.7988 317.5052 16.33586327001100
3.0,GENERATED VIA SPACE-TRACK.ORG API,2004-05-28T18:54:41,18 SPCS,PSLV DEB,2001-049MG,EARTH,TEME,UTC,SGP4,2002-02-09T16:49:06.879648,15.53904428,0.003002,97.83,119.0314,256.853,103.1193,0,U,27359,999,5279,0.052351,0.03999623,0.0,6783.48,92.669,425.709,384.981,DEBRIS,SMALL,IND,2001-10-22,SRI,2002-02-13,6538,2108719,0 PSLV DEB,1 27359U 01049MG  02040.70077407 +.03999623 +00000-0 +52351-1 0  9996,2 27359 097.8300 119.0314 0030020 256.8530 103.1193 15.53904428052790
3.0,GENERATED VIA SPACE-TRACK.ORG API,2004-08-15T23:41:59,18 SPCS,SL-3 DEB,1969-029X,EARTH,TEME,UTC,SGP4,1979-11-19T02:22:31.720800,16.05865501,0.0028717,81.0032,184.9902,20.5601,339.6823,0,U,3877,999,58560,0.0019394,0.01469411,-1.4108e-06,6636.35,89.671,277.273,239.158,DEBRIS,SMALL,CIS,1969-03-26,PKMTR,1979-11-23,34038,10695790,0 SL-3 DEB,1 03877U 69029  X 79323.09897825  .01469411 -14108-5 +19394-2 0  9997,2 03877 081.0032 184.9902 0028717 020.5601 339.6823 16.05865501585608
3.0,GENERATED VIA SPACE-TRACK.ORG API,2004-08-15T23:36:44,18 SPCS,TITAN 3C TRANSTAGE DEB,1965-082RH,EARTH,TEME,UTC,SGP4,1969-04-03T01:57:34.941888,15.79882526,0.0013896,32.9037,8.521,233.8745,126.0594,0,U,3726,999,1170,0.0,0.0164027,0.0,6708.914,91.146,340.102,321.456,DEBRIS,,,,,1969-04-06,33933,8826291,0 TITAN 3C TRANSTAGE DEB,1 03726U 65082 RH 69093.08165442  .01640270 +00000-0 +00000-0 0  9996,2 03726 032.9037 008.5210 0013896 233.8745 126.0594 15.79882526011708
3.0,GENERATED VIA SPACE-TRACK.ORG API,2009-03-14T13:42:12,18 SPCS,COSMOS 2421 DEB,2006-026JL,EARTH,TEME,UTC,SGP4,2009-03-13T20:43:51.182111,16.23868327,0.00224,65.0756,239.9329,224.7727,153.8432,0,U,33031,999,4664,0.0019057,0.05339609,7.1884e-06,6587.211,88.677,223.831,194.32,DEBRIS,SMALL,CIS,2006-06-25,TTMTR,2009-03-15,685846,70315922,0 COSMOS 2421 DEB,1 33031U 06026JL  09072.86378683  .05339609  71884-5  19057-2 0  9993,2 33031 065.0756 239.9329 0022400 224.7727 153.8432 16.23868327 46649
3.0,GENERATED VIA SPACE-TRACK.ORG API,2023-10-25T23:36:17,18 SPCS,NUSAT-10 CAROLINE,2020-079F,EARTH,TEME,UTC,SGP4,2023-10-24T13:56:03.710400,16.26728051,0.0009442,97.1204,13.8592,272.5521,87.4691,0,U,46832,999,16688,0.0010056,0.03289947,2.3018e-06,6579.485,88.521,207.562,195.137,PAYLOAD,MEDIUM,ARGN,2020-11-06,TSC,2023-10-31,4052074,240152149,0 NUSAT-10 CAROLINE,1 46832U 20079F   23297.58059850  .03289947  23018-5  10056-2 0  9999,2 46832  97.1204  13.8592 0009442 272.5521  87.4691 16.26728051166881
3.0,GENERATED VIA SPACE-TRACK.ORG API,2004-08-15T23:47:05,18 SPCS,SL-8 R/B,1972-053B,EARTH,TEME,UTC,SGP4,1980-04-27T18:02:36.207743,16.47995293,0.0011468,74.009,294.5277,265.1322,94.8632,0,U,6098,999,43411,0.00017794,0.1864213,5.6746e-06,6522.761,87.378,152.106,137.145,ROCKET BODY,LARGE,CIS,1972-07-10,PKMTR,1980-04-27,34140,11381062,0 SL-8 R/B,1 06098U 72053  B 80118.75180796  .18642130 +56746-5 +17794-3 0  9990,2 06098 074.0090 294.5277 0011468 265.1322 094.8632 16.47995293434112
3.0,GENERATED VIA SPACE-TRACK.ORG API,2004-08-17T14:49:45,18 SPCS,SL-12 DEB,1984-106H,EARTH,TEME,UTC,SGP4,1992-12-06T13:35:15.748799,15.43828131,0.0067102,66.3466,114.1293,6.6144,357.0266,0,U,22140,999,1295,0.68705,0.15369225,0.0,6812.964,93.274,480.546,389.113,DEBRIS,SMALL,CIS,1984-09-28,TTMTR,1992-12-06,34844,18900058,0 SL-12 DEB,1 22140U 84106  H 92341.56615450  .15369225 +00000-0 +6870500 0  9997,2 22140 066.3466 114.1293 0067102 006.6144 357.0266 15.43828131012952
3.0,GENERATED VIA SPACE-TRACK.ORG API,2004-08-17T14:44:21,18 SPCS,ARIANE 1 DEB,1986-019P,EARTH,TEME,UTC,SGP4,1990-07-01T13:59:51.809855,16.08664141,0.0008816,98.8783,37.404,252.5209,108.6966,0,U,17119,999,19419,0.014531,-0.9559108,0.05424,6628.651,89.515,256.36,244.672,DEBRIS,LARGE,FR,1986-02-22,FRGUI,1990-07-02,34736,17701841,0 ARIANE 1 DEB,1 17119U 86019  P 90182.58323854 -.95591080 +54240-1 +14531-1 0  9990,2 17119 098.8783 037.4040 0008816 252.5209 108.6966 16.08664141194197
